*******************************************************************************
 Revised: April 12, 2021                Venus                           299 / 2
 
 PHYSICAL DATA (updated 2020-Oct-19):
  Vol. Mean Radius (km) =  6051.84+-0.01 Density (g/cm^3)      =  5.204
  Mass x10^23 (kg)      =    48.685      Volume (x10^10 km^3)  = 92.843
  Sidereal rot. period  =   243.018484 d Sid. Rot. Rate (rad/s)= -0.00000029924
  Mean solar day        =   116.7490 d   Equ. gravity  m/s^2   =  8.870
  Mom. of Inertia       =     0.33       Core radius (km)      = ~3200
  Geometric Albedo      =     0.65       Potential Love # k2   = ~0.25
  GM (km^3/s^2)         = 324858.592     Equatorial Radius, Re = 6051.893 km
  GM 1-sigma (km^3/s^2) =    +-0.006     Mass ratio (Sun/Venus)= 408523.72
  Atmos. pressure (bar) =  90            Max. angular diam.    =   60.2"
  Mean Temperature (K)  = 735            Visual mag. V(1,0)    =   -4.40
  Obliquity to orbit    = 177.3 deg      Hill's sphere rad.,Rp =  167.1
  Sidereal orb. per., y =   0.61519726   Orbit speed, km/s     =   35.021
  Sidereal orb. per., d = 224.70079922   Escape speed, km/s    =   10.361
                                 Perihelion  Aphelion    Mean
  Solar Constant (W/m^2)         2759         2614       2650
  Maximum Planetary IR (W/m^2)    153         153         153
  Minimum Planetary IR (W/m^2)    153         153         153
*******************************************************************************


*******************************************************************************
Ephemeris / WWW_USER Wed Oct  5 14:42:12 2022 Pasadena, USA      / Horizons
*******************************************************************************
Target body name: Venus (299)                     {source: DE441}
Center body name: Sun (10)                        {source: DE441}
Center-site name: BODY CENTER
*******************************************************************************
Start time      : A.D. 2023-May-21 16:00:00.0000 TDB
Stop  time      : A.D. 2023-May-23 16:00:00.0000 TDB
Step-size       : 30 minutes
*******************************************************************************
Center geodetic : 0.00000000,0.00000000,0.0000000 {E-lon(deg),Lat(deg),Alt(km)}
Center cylindric: 0.00000000,0.00000000,0.0000000 {E-lon(deg),Dxy(km),Dz(km)}
Center radii    : 696000.0 x 696000.0 x 696000.0 k{Equator, meridian, pole}    
Output units    : KM-S
Output type     : GEOMETRIC cartesian states
Output format   : 2 (position and velocity)
Reference frame : Ecliptic of J2000.0
*******************************************************************************
JDTDB
   X     Y     Z
   VX    VY    VZ
*******************************************************************************
$$SOE
2460086.166666667 = A.D. 2023-May-21 16:00:00.0000 TDB 
 X =-1.068839377223158E+08 Y =-1.257850764599921E+07 Z = 5.994784146657083E+06
 VX= 3.875842841624019E+00 VY=-3.493562896255853E+01 VZ=-7.032936093968054E-01
2460086.187500000 = A.D. 2023-May-21 16:30:00.0000 TDB 
 X =-1.068769428562007E+08 Y =-1.264138961515430E+07 Z = 5.993517189068693E+06
 VX= 3.896230364065578E+00 VY=-3.493322365897784E+01 VZ=-7.044370022360198E-01
2460086.208333333 = A.D. 2023-May-21 17:00:00.0000 TDB 
 X =-1.068699112939270E+08 Y =-1.270426724398902E+07 Z = 5.992248173600840E+06
 VX= 3.916616350068931E+00 VY=-3.493080638454684E+01 VZ=-7.055801420652887E-01
2460086.229166667 = A.D. 2023-May-21 17:30:00.0000 TDB 
 X =-1.068628430382666E+08 Y =-1.276714051095680E+07 Z = 5.990977100709299E+06
 VX= 3.937000792582480E+00 VY=-3.492837714033858E+01 VZ=-7.067230284924548E-01
2460086.250000000 = A.D. 2023-May-21 18:00:00.0000 TDB 
 X =-1.068557380920040E+08 Y =-1.283000939451302E+07 Z = 5.989703970850544E+06
 VX= 3.957383684555448E+00 VY=-3.492593592743029E+01 VZ=-7.078656611254548E-01
2460086.270833333 = A.D. 2023-May-21 18:30:00.0000 TDB 
 X =-1.068485964579367E+08 Y =-1.289287387311498E+07 Z = 5.988428784481758E+06
 VX= 3.977765018937883E+00 VY=-3.492348274690347E+01 VZ=-7.090080395723284E-01
2460086.291666667 = A.D. 2023-May-21 19:00:00.0000 TDB 
 X =-1.068414181388746E+08 Y =-1.295573392522195E+07 Z = 5.987151542060830E+06
 VX= 3.998144788680661E+00 VY=-3.492101759984379E+01 VZ=-7.101501634412379E-01
2460086.312500000 = A.D. 2023-May-21 19:30:00.0000 TDB 
 X =-1.068342031376405E+08 Y =-1.301858952929515E+07 Z = 5.985872244046352E+06
 VX= 4.018522986735485E+00 VY=-3.491854048734115E+01 VZ=-7.112920323404257E-01
2460086.333333333 = A.D. 2023-May-21 20:00:00.0000 TDB 
 X =-1.068269514570696E+08 Y =-1.308144066379777E+07 Z = 5.984590890897621E+06
 VX= 4.038899606054895E+00 VY=-3.491605141048964E+01 VZ=-7.124336458782636E-01
2460086.354166667 = A.D. 2023-May-21 20:30:00.0000 TDB 
 X =-1.068196631000101E+08 Y =-1.314428730719496E+07 Z = 5.983307483074642E+06
 VX= 4.059274639592261E+00 VY=-3.491355037038763E+01 VZ=-7.135750036632089E-01
2460086.375000000 = A.D. 2023-May-21 21:00:00.0000 TDB 
 X =-1.068123380693228E+08 Y =-1.320712943795387E+07 Z = 5.982022021038121E+06
 VX= 4.079648080301797E+00 VY=-3.491103736813761E+01 VZ=-7.147161053038467E-01
2460086.395833333 = A.D. 2023-May-21 21:30:00.0000 TDB 
 X =-1.068049763678810E+08 Y =-1.326996703454363E+07 Z = 5.980734505249469E+06
 VX= 4.100019921138549E+00 VY=-3.490851240484633E+01 VZ=-7.158569504088526E-01
2460086.416666667 = A.D. 2023-May-21 22:00:00.0000 TDB 
 X =-1.067975779985708E+08 Y =-1.333280007543536E+07 Z = 5.979444936170803E+06
 VX= 4.120390155058411E+00 VY=-3.490597548162475E+01 VZ=-7.169975385870124E-01
2460086.437500000 = A.D. 2023-May-21 22:30:00.0000 TDB 
 X =-1.067901429642911E+08 Y =-1.339562853910219E+07 Z = 5.978153314264947E+06
 VX= 4.140758775018121E+00 VY=-3.490342659958802E+01 VZ=-7.181378694472169E-01
2460086.458333333 = A.D. 2023-May-21 23:00:00.0000 TDB 
 X =-1.067826712679534E+08 Y =-1.345845240401926E+07 Z = 5.976859639995420E+06
 VX= 4.161125773975266E+00 VY=-3.490086575985551E+01 VZ=-7.192779425984757E-01
2460086.479166667 = A.D. 2023-May-21 23:30:00.0000 TDB 
 X =-1.067751629124817E+08 Y =-1.352127164866373E+07 Z = 5.975563913826452E+06
 VX= 4.181491144888281E+00 VY=-3.489829296355079E+01 VZ=-7.204177576498836E-01
2460086.500000000 = A.D. 2023-May-22 00:00:00.0000 TDB 
 X =-1.067676179008128E+08 Y =-1.358408625151478E+07 Z = 5.974266136222974E+06
 VX= 4.201854880716455E+00 VY=-3.489570821180165E+01 VZ=-7.215573142106582E-01
2460086.520833333 = A.D. 2023-May-22 00:30:00.0000 TDB 
 X =-1.067600362358963E+08 Y =-1.364689619105363E+07 Z = 5.972966307650623E+06
 VX= 4.222216974419932E+00 VY=-3.489311150574007E+01 VZ=-7.226966118901270E-01
2460086.541666667 = A.D. 2023-May-22 01:00:00.0000 TDB 
 X =-1.067524179206944E+08 Y =-1.370970144576353E+07 Z = 5.971664428575733E+06
 VX= 4.242577418959715E+00 VY=-3.489050284650224E+01 VZ=-7.238356502977084E-01
2460086.562500000 = A.D. 2023-May-22 01:30:00.0000 TDB 
 X =-1.067447629581818E+08 Y =-1.377250199412981E+07 Z = 5.970360499465347E+06
 VX= 4.262936207297665E+00 VY=-3.488788223522854E+01 VZ=-7.249744290429447E-01
2460086.583333333 = A.D. 2023-May-22 02:00:00.0000 TDB 
 X =-1.067370713513461E+08 Y =-1.383529781463982E+07 Z = 5.969054520787210E+06
 VX= 4.283293332396513E+00 VY=-3.488524967306358E+01 VZ=-7.261129477354711E-01
2460086.604166667 = A.D. 2023-May-22 02:30:00.0000 TDB 
 X =-1.067293431031874E+08 Y =-1.389808888578300E+07 Z = 5.967746493009766E+06
 VX= 4.303648787219846E+00 VY=-3.488260516115618E+01 VZ=-7.272512059850467E-01
2460086.625000000 = A.D. 2023-May-22 03:00:00.0000 TDB 
 X =-1.067215782167185E+08 Y =-1.396087518605083E+07 Z = 5.966436416602165E+06
 VX= 4.324002564732124E+00 VY=-3.487994870065930E+01 VZ=-7.283892034015214E-01
2460086.645833333 = A.D. 2023-May-22 03:30:00.0000 TDB 
 X =-1.067137766949649E+08 Y =-1.402365669393691E+07 Z = 5.965124292034253E+06
 VX= 4.344354657898681E+00 VY=-3.487728029273018E+01 VZ=-7.295269395948676E-01
2460086.666666667 = A.D. 2023-May-22 04:00:00.0000 TDB 
 X =-1.067059385409649E+08 Y =-1.408643338793690E+07 Z = 5.963810119776590E+06
 VX= 4.364705059685721E+00 VY=-3.487459993853018E+01 VZ=-7.306644141751626E-01
2460086.687500000 = A.D. 2023-May-22 04:30:00.0000 TDB 
 X =-1.066980637577691E+08 Y =-1.414920524654856E+07 Z = 5.962493900300426E+06
 VX= 4.385053763060320E+00 VY=-3.487190763922495E+01 VZ=-7.318016267525778E-01
2460086.708333333 = A.D. 2023-May-22 05:00:00.0000 TDB 
 X =-1.066901523484411E+08 Y =-1.421197224827175E+07 Z = 5.961175634077717E+06
 VX= 4.405400760990441E+00 VY=-3.486920339598426E+01 VZ=-7.329385769374159E-01
2460086.729166667 = A.D. 2023-May-22 05:30:00.0000 TDB 
 X =-1.066822043160570E+08 Y =-1.427473437160844E+07 Z = 5.959855321581121E+06
 VX= 4.425746046444920E+00 VY=-3.486648720998211E+01 VZ=-7.340752643400705E-01
2460086.750000000 = A.D. 2023-May-22 06:00:00.0000 TDB 
 X =-1.066742196637056E+08 Y =-1.433749159506273E+07 Z = 5.958532963283995E+06
 VX= 4.446089612393481E+00 VY=-3.486375908239673E+01 VZ=-7.352116885710434E-01
2460086.770833333 = A.D. 2023-May-22 06:30:00.0000 TDB 
 X =-1.066661983944883E+08 Y =-1.440024389714083E+07 Z = 5.957208559660401E+06
 VX= 4.466431451806733E+00 VY=-3.486101901441046E+01 VZ=-7.363478492409641E-01
2460086.791666667 = A.D. 2023-May-22 07:00:00.0000 TDB 
 X =-1.066581405115193E+08 Y =-1.446299125635108E+07 Z = 5.955882111185099E+06
 VX= 4.486771557656176E+00 VY=-3.485826700720992E+01 VZ=-7.374837459605494E-01
2460086.812500000 = A.D. 2023-May-22 07:30:00.0000 TDB 
 X =-1.066500460179251E+08 Y =-1.452573365120397E+07 Z = 5.954553618333546E+06
 VX= 4.507109922914195E+00 VY=-3.485550306198589E+01 VZ=-7.386193783406334E-01
2460086.833333333 = A.D. 2023-May-22 08:00:00.0000 TDB 
 X =-1.066419149168453E+08 Y =-1.458847106021214E+07 Z = 5.953223081581909E+06
 VX= 4.527446540554075E+00 VY=-3.485272717993335E+01 VZ=-7.397547459921636E-01
